{"_default": { "21": {"norad_id": "40024", "name": "NANOSAT C BR1", "tle1": "1 40024U 14033Q   26163.82755017  .00018075  00000-0  59942-3 0  9997", "tle2": "2 40024  98.0726 195.8291 0003987 174.2595 185.8691 15.31323284653317", "object_type": "PAYLOAD", "criticality_score": 9.0, "last_updated": "2026-06-13T11:16:06.819600+00:00", "maneuver_count": 0, "owner": "BRAZ"}, "25": {"norad_id": "39444", "name": "FUNCUBE 1", "tle1": "1 39444U 13066AE  26163.81395881  .00007072  00000-0  43981-3 0  9995", "tle2": "2 39444  97.8264 135.1682 0035292 216.3292 143.5540 15.09437538679003", "object_type": "PAYLOAD", "criticality_score": 9.0, "last_updated": "2026-06-13T11:16:06.819600+00:00", "maneuver_count": 0, "owner": "UK"}, "26": {"norad_id": "39417", "name": "ZACUBE", "tle1": "1 39417U 13066B   26163.87468678  .00003629  00000-0  28323-3 0  9993", "tle2": "2 39417  97.8083 126.1882 0040346 262.7759  96.8878 15.01164573680085", "object_type": "PAYLOAD", "criticality_score": 9.0, "last_updated": "2026-06-13T11:16:06.819600+00:00", "maneuver_count": 0, "owner": "SAFR"}, "29": {"norad_id": "39091", "name": "BRITE-A TUGSAT-1", "tle1": "1 39091U 13009F   26163.82006196  .00000162  00000-0  69818-4 0  9990", "tle2": "2 39091  98.3993 343.3639 0009016 251.2113 108.8095 14.36540476696425", "object_type": "PAYLOAD", "criticality_score": 9.0, "last_updated": "2026-06-13T11:16:06.819600+00:00", "maneuver_count": 0, "owner": "ASRA"}, "32": {"norad_id": "36799", "name": "TISAT 1", "tle1": "1 36799U 10035E   26163.80523880  .00022701  00000-0  74651-3 0  9993", "tle2": "2 36799  98.0703 109.9656 0000770 172.9333 187.1918 15.31550354867032", "object_type": "PAYLOAD", "criticality_score": 9.0, "last_updated": "2026-06-13T11:16:06.819600+00:00", "maneuver_count": 0, "owner": "SWTZ"}, "53": {"norad_id": "40025", "name": "QB50P1", "tle1": "1 40025U 14033R   26163.27290574  .00008177  00000-0  40334-3 0  9996", "tle2": "2 40025  98.0962 174.0743 0007351 234.6928 125.3617 15.18187953652289", "object_type": "PAYLOAD", "criticality_score": 9.0, "last_updated": "2026-06-13T11:16:06.819600+00:00", "maneuver_count": 0, "owner": "BEL"}, "56": {"norad_id": "39446", "name": "UWE-3", "tle1": "1 39446U 13066AG  26163.80415188  .00004670  00000-0  40178-3 0  9995", "tle2": "2 39446  97.8686 119.8484 0048274 335.7540  24.1410 14.96991298676929", "object_type": "PAYLOAD", "criticality_score": 9.0, "last_updated": "2026-06-13T11:16:06.819600+00:00", "maneuver_count": 0, "owner": "GER"}, "58": {"norad_id": "39090", "name": "STRAND-1", "tle1": "1 39090U 13009E   26163.25210112  .00000272  00000-0  10585-3 0  9999", "tle2": "2 39090  98.3921 343.6080 0007529 242.0462 117.9963 14.37160588696350", "object_type": "PAYLOAD", "criticality_score": 9.0, "last_updated": "2026-06-13T11:16:06.819600+00:00", "maneuver_count": 0, "owner": "UK"}, "64": {"norad_id": "35935", "name": "ITUPSAT-1", "tle1": "1 35935U 09051E   26162.20832686  .00000614  00000-0  13683-3 0  9997", "tle2": "2 35935  98.4055  68.8386 0006132 256.4621 103.5895 14.60431670887865", "object_type": "PAYLOAD", "criticality_score": 9.0, "last_updated": "2026-06-13T11:16:06.819600+00:00", "maneuver_count": 0, "owner": "TURK"}, "65": {"norad_id": "35933", "name": "BEESAT", "tle1": "1 35933U 09051C   26163.24945813  .00000781  00000-0  16660-3 0  9990", "tle2": "2 35933  98.3970  70.6975 0003996 236.3504 123.7316 14.61713145888465", "object_type": "PAYLOAD", "criticality_score": 9.0, "last_updated": "2026-06-13T11:16:06.819600+00:00", "maneuver_count": 0, "owner": "GER"}, "66": {"norad_id": "35932", "name": "SWISSCUBE", "tle1": "1 35932U 09051B   26162.21632552  .00000804  00000-0  16844-3 0  9998", "tle2": "2 35932  98.4041  70.0006 0005629 224.4191 135.6559 14.62470076888283", "object_type": "PAYLOAD", "criticality_score": 9.0, "last_updated": "2026-06-13T11:16:06.819600+00:00", "maneuver_count": 0, "owner": "SWTZ"}, "84": {"norad_id": "40032", "name": "QB50P2", "tle1": "1 40032U 14033Y   26163.21296600  .00007445  00000-0  40125-3 0  9999", "tle2": "2 40032  98.0746 159.7835 0007475 179.7107 180.4130 15.15096941651918", "object_type": "PAYLOAD", "criticality_score": 9.0, "last_updated": "2026-06-13T11:16:06.819600+00:00", "maneuver_count": 0, "owner": "BEL"}, "86": {"norad_id": "40021", "name": "DUCHIFAT-1", "tle1": "1 40021U 14033M   26163.09548070  .00095136  00000-0  10168-2 0  9991", "tle2": "2 40021  98.0477 221.5443 0003958 124.7307 235.4323 15.63580933654958", "object_type": "PAYLOAD", "criticality_score": 9.0, "last_updated": "2026-06-13T11:16:06.819600+00:00", "maneuver_count": 0, "owner": "ISRA"}, "87": {"norad_id": "39440", "name": "CUBEBUG 2", "tle1": "1 39440U 13066AA  26163.84301876  .00004525  00000-0  41877-3 0  9997", "tle2": "2 39440  97.8900 112.8027 0058755  43.0424 317.5369 14.93728016676344", "object_type": "PAYLOAD", "criticality_score": 9.0, "last_updated": "2026-06-13T11:16:06.819600+00:00", "maneuver_count": 0, "owner": "ARGN"}, "88": {"norad_id": "39430", "name": "GOMX 1", "tle1": "1 39430U 13066Q   26163.82796623  .00002189  00000-0  33202-3 0  9999", "tle2": "2 39430  97.6491   4.5668 0130186  91.3655 270.2469 14.69445497669277", "object_type": "PAYLOAD", "criticality_score": 9.0, "last_updated": "2026-06-13T11:16:06.819600+00:00", "maneuver_count": 0, "owner": "DEN"}, "91": {"norad_id": "32785", "name": "CUTE-1.7+APD 2", "tle1": "1 32785U 08021C   26163.87354113  .00005212  00000-0  32974-3 0  9994", "tle2": "2 32785  97.8271 145.2022 0010268  52.3473 307.8685 15.09415432984549", "object_type": "PAYLOAD", "criticality_score": 9.0, "last_updated": "2026-06-13T11:16:06.819600+00:00", "maneuver_count": 0, "owner": "JPN"}, "92": {"norad_id": "28895", "name": "XI-V", "tle1": "1 28895U 05043F   26162.96687193  .00001171  00000-0  19211-3 0  9997", "tle2": "2 28895  98.2978 318.4792 0013339 218.0052 142.0215 14.72617350100987", "object_type": "PAYLOAD", "criticality_score": 9.0, "last_updated": "2026-06-13T11:16:06.819600+00:00", "maneuver_count": 0, "owner": "JPN"}, "94": {"norad_id": "27848", "name": "XI-IV", "tle1": "1 27848U 03031J   26162.96515925  .00000209  00000-0  11102-3 0  9994", "tle2": "2 27848  98.6768 171.3067 0008711 213.1482 146.9152 14.23618048190632", "object_type": "PAYLOAD", "criticality_score": 9.0, "last_updated": "2026-06-13T11:16:06.819600+00:00", "maneuver_count": 0, "owner": "JPN"}, "95": {"norad_id": "27844", "name": "CUTE-1", "tle1": "1 27844U 03031E   26162.97931317  .00000243  00000-0  12418-3 0  9997", "tle2": "2 27844  98.6735 171.6035 0009162 193.3973 166.6964 14.24332546190935", "object_type": "PAYLOAD", "criticality_score": 9.0, "last_updated": "2026-06-13T11:16:06.819600+00:00", "maneuver_count": 0, "owner": "JPN"}, "111": {"norad_id": "39441", "name": "NEE 02 KRYSAOR", "tle1": "1 39441U 13066AB  26163.76685455  .00002506  00000-0  27733-3 0  9999", "tle2": "2 39441  97.8891 103.0132 0067729  84.3575 276.5359 14.86600291675549", "object_type": "PAYLOAD", "criticality_score": 9.0, "last_updated": "2026-06-13T11:16:06.819600+00:00", "maneuver_count": 0, "owner": "ECU"}, "118": {"norad_id": "39151", "name": "NEE 01 PEGASUS", "tle1": "1 39151U 13018B   26162.37036833  .00001781  00000-0  17424-3 0  9990", "tle2": "2 39151  98.1214 306.3290 0012644 177.4473 182.6812 14.93633706709836", "object_type": "PAYLOAD", "criticality_score": 9.0, "last_updated": "2026-06-13T11:16:06.819600+00:00", "maneuver_count": 0, "owner": "ECU"}, "143": {"norad_id": "39427", "name": "TRITON 1", "tle1": "1 39427U 13066M   26163.90606505  .00002047  00000-0  24983-3 0  9992", "tle2": "2 39427  97.8251  73.8104 0088380 248.0760 111.1040 14.81691699673453", "object_type": "PAYLOAD", "criticality_score": 9.0, "last_updated": "2026-06-13T11:16:06.819600+00:00", "maneuver_count": 0, "owner": "UK"}, "149": {"norad_id": "32791", "name": "SEEDS", "tle1": "1 32791U 08021J   26163.23902191  .00019444  00000-0  61967-3 0  9992", "tle2": "2 32791  97.7515 160.9008 0001816  20.0677 340.0635 15.32585967986533", "object_type": "PAYLOAD", "criticality_score": 9.0, "last_updated": "2026-06-13T11:16:06.819600+00:00", "maneuver_count": 0, "owner": "JPN"}, "273": {"norad_id": "40020", "name": "BRITE TORONTO", "tle1": "1 40020U 14033L   26163.82522090  .00000649  00000-0  10540-3 0  9995", "tle2": "2 40020  97.9733 292.8337 0077305 291.2366  68.0597 14.72671113641572", "object_type": "PAYLOAD", "criticality_score": 9.0, "last_updated": "2026-06-13T11:16:06.819600+00:00", "maneuver_count": 0, "owner": "CA"}}}